YAM-7                   
1 60504U 24149AN  26068.71799904  .00009009  00000+0  30984-3 0  9997
2 60504  97.3828 149.4631 0001973 296.5121  63.5918 15.30304554 86835
STARLINK-33807          
1 63518U 25071AB  26068.52552142  .00024698  00000+0  84338-3 0  9993
2 63518  53.1599 142.8576 0001099  99.0724 261.0401 15.30194582 52717
